NORAD_CAT_ID,OBJECT_NAME,OBJECT_TYPE,EPOCH,MEAN_MOTION,ECCENTRICITY,INCLINATION,RA_OF_ASC_NODE,ARG_OF_PERICENTER,MEAN_ANOMALY,BSTAR,MEAN_MOTION_DOT,MEAN_MOTION_DDOT,TLE_LINE0,TLE_LINE1,TLE_LINE2,SEMIMAJOR_AXIS,PERIOD,APOGEE,PERIGEE,DECAYED
55942.0,STARLINK-5917,PAYLOAD,2024-02-09 10:12:49,14.98331075,0.0002781,70.0005,38.6743,267.8952,92.1888,1.2039e-05,5.1e-07,0.0,0 STARLINK-5917,1 55942U 23037AE  24040.42556979  .00000051  00000-0  12039-4 0  9992,2 55942  70.0005  38.6743 0002781 267.8952  92.1888 14.98331075 50593,6950.19,96.107,573.987,570.122,0.0
55942.0,STARLINK-5917,PAYLOAD,2024-02-10 08:38:42,14.98327298,0.0002639,70.0008,36.3173,262.6554,97.4305,1.5761e-05,9.5e-07,0.0,0 STARLINK-5917,1 55942U 23037AE  24041.36021222  .00000095  00000-0  15761-4 0  9997,2 55942  70.0008  36.3173 0002639 262.6554  97.4305 14.98327298 50393,6950.201,96.107,573.9,570.232,0.0
55942.0,STARLINK-5917,PAYLOAD,2024-02-10 23:03:54,14.98329366,0.0002848,70.0009,34.8031,269.1407,90.9425,4.3038e-05,4.21e-06,0.0,0 STARLINK-5917,1 55942U 23037AE  24041.96105011  .00000421  00000-0  43038-4 0  9993,2 55942  70.0009  34.8031 0002848 269.1407  90.9425 14.98329366 50480,6950.195,96.107,574.039,570.08,0.0
55942.0,STARLINK-5917,PAYLOAD,2024-02-11 02:16:10,14.98328469,0.0002975,70.0006,34.466,264.8838,95.1982,2.3087e-05,1.82e-06,0.0,0 STARLINK-5917,1 55942U 23037AE  24042.09457068  .00000182  00000-0  23087-4 0  9996,2 55942  70.0006  34.4660 0002975 264.8838  95.1982 14.98328469 50840,6950.198,96.107,574.13,569.995,0.0
55942.0,STARLINK-5917,PAYLOAD,2024-02-11 08:40:43,14.98328411,0.0002855,70.0009,33.7937,260.8274,99.2562,7.1401e-05,7.59e-06,0.0,0 STARLINK-5917,1 55942U 23037AE  24042.36160918  .00000759  00000-0  71401-4 0  9994,2 55942  70.0009  33.7937 0002855 260.8274  99.2562 14.98328411 50542,6950.198,96.107,574.047,570.079,0.0
55942.0,STARLINK-5917,PAYLOAD,2024-02-12 03:54:19,14.9832954,0.0002757,70.001,31.7738,259.6988,100.386,1.2606e-07,-9.1e-07,0.0,0 STARLINK-5917,1 55942U 23037AE  24043.16272982 -.00000091  00000-0  12606-6 0  9992,2 55942  70.0010  31.7738 0002757 259.6988 100.3860 14.98329540 51001,6950.194,96.107,573.975,570.143,0.0
55942.0,STARLINK-5917,PAYLOAD,2024-02-12 08:42:43,14.9833173,0.0002703,70.0012,31.2691,257.9226,102.163,2.7511e-05,2.35e-06,0.0,0 STARLINK-5917,1 55942U 23037AE  24043.36300749  .00000235  00000-0  27511-4 0  9995,2 55942  70.0012  31.2691 0002703 257.9226 102.1630 14.98331730 50696,6950.188,96.107,573.931,570.174,0.0
55942.0,STARLINK-5917,PAYLOAD,2024-02-12 23:07:56,14.98326572,0.0002537,70.0018,29.755,250.4381,109.6505,-1.6462e-05,-2.89e-06,0.0,0 STARLINK-5917,1 55942U 23037AE  24043.96385177 -.00000289  00000-0 -16462-4 0  9993,2 55942  70.0018  29.7550 0002537 250.4381 109.6505 14.98326572 50784,6950.203,96.107,573.832,570.305,0.0
55942.0,STARLINK-5917,PAYLOAD,2024-02-13 08:44:45,14.9832667,0.0002565,70.002,28.7446,249.175,110.9135,-1.7042e-05,-2.96e-06,0.0,0 STARLINK-5917,1 55942U 23037AE  24044.36441231 -.00000296  00000-0 -17042-4 0  9995,2 55942  70.0020  28.7446 0002565 249.1750 110.9135 14.98326670 51184,6950.203,96.107,573.851,570.285,0.0
55942.0,STARLINK-5917,PAYLOAD,2024-02-13 21:33:49,14.98338798,0.0002577,70.0011,27.3947,267.4339,92.6525,-6.7243e-05,-8.95e-06,0.0,0 STARLINK-5917,1 55942U 23037AE  24044.89848745 -.00000895  00000-0 -67243-4 0  9997,2 55942  70.0011  27.3947 0002577 267.4339  92.6525 14.98338798 50928,6950.166,96.106,573.822,570.24,0.0
55942.0,STARLINK-5917,PAYLOAD,2024-02-14 08:46:45,14.98335504,0.0002847,70.0011,26.2165,269.1621,90.9212,9.4817e-05,1.039e-05,0.0,0 STARLINK-5917,1 55942U 23037AE  24045.36580298  .00001039  00000-0  94817-4 0  9992,2 55942  70.0011  26.2165 0002847 269.1621  90.9212 14.98335504 51333,6950.176,96.107,574.02,570.062,0.0
55942.0,STARLINK-5917,PAYLOAD,2024-02-14 21:35:50,14.98329748,0.0002319,70.0023,24.8717,253.9198,106.1705,3.8482e-05,3.66e-06,0.0,0 STARLINK-5917,1 55942U 23037AE  24045.89988778  .00000366  00000-0  38482-4 0  9993,2 55942  70.0023  24.8717 0002319 253.9198 106.1705 14.98329748 51078,6950.194,96.107,573.67,570.447,0.0
55942.0,STARLINK-5917,PAYLOAD,2024-02-15 04:00:22,14.98326395,0.0002537,70.0016,24.1971,264.5313,95.5557,-1.4297e-05,-2.63e-06,0.0,0 STARLINK-5917,1 55942U 23037AE  24046.16693186 -.00000263  00000-0 -14297-4 0  9996,2 55942  70.0016  24.1971 0002537 264.5313  95.5557 14.98326395 51457,6950.204,96.107,573.832,570.306,0.0
55942.0,STARLINK-5917,PAYLOAD,2024-02-15 08:48:47,14.98327191,0.0002558,70.0016,23.6935,261.9704,98.1165,-7.9245e-06,-1.87e-06,0.0,0 STARLINK-5917,1 55942U 23037AE  24046.36721134 -.00000187  00000-0 -79245-5 0  9993,2 55942  70.0016  23.6935 0002558 261.9704  98.1165 14.98327191 51144,6950.202,96.107,573.844,570.289,0.0
55942.0,STARLINK-5917,PAYLOAD,2024-02-15 15:13:19,14.98328301,0.0002476,70.0017,23.0203,270.303,89.7845,-3.9304e-05,-5.62e-06,0.0,0 STARLINK-5917,1 55942U 23037AE  24046.63425248 -.00000562  00000-0 -39304-4 0  9998,2 55942  70.0017  23.0203 0002476 270.3030  89.7845 14.98328301 51181,6950.198,96.107,573.784,570.342,0.0
55942.0,STARLINK-5917,PAYLOAD,2024-02-16 08:50:49,14.98311528,0.0003044,70.0017,21.1675,277.5316,82.5497,-0.00026093,-3.203e-05,0.0,0 STARLINK-5917,1 55942U 23037AE  24047.36863096 -.00003203  00000-0 -26093-3 0  9991,2 55942  70.0017  21.1675 0003044 277.5316  82.5497 14.98311528 51638,6950.25,96.108,574.231,569.999,0.0
55942.0,STARLINK-5917,PAYLOAD,2024-02-17 04:04:26,14.98315703,0.0002806,70.001,19.1478,265.6688,94.4151,-7.9632e-05,-1.043e-05,0.0,0 STARLINK-5917,1 55942U 23037AE  24048.16975058 -.00001043  00000-0 -79632-4 0  9990,2 55942  70.0010  19.1478 0002806 265.6688  94.4151 14.98315703 51755,6950.237,96.108,574.052,570.152,0.0
55942.0,STARLINK-5917,PAYLOAD,2024-02-17 08:52:50,14.98320169,0.0002739,70.0011,18.6425,267.538,92.5465,-2.9793e-05,-4.48e-06,0.0,0 STARLINK-5917,1 55942U 23037AE  24048.37002819 -.00000448  00000-0 -29793-4 0  9990,2 55942  70.0011  18.6425 0002739 267.5380  92.5465 14.98320169 51442,6950.223,96.108,573.992,570.185,0.0
55942.0,STARLINK-5917,PAYLOAD,2024-02-17 15:17:22,14.98323829,0.0002796,70.0011,17.9695,266.8017,93.2823,0.00013022,1.461e-05,0.0,0 STARLINK-5917,1 55942U 23037AE  24048.63706311  .00001461  00000-0  13022-3 0  9998,2 55942  70.0011  17.9695 0002796 266.8017  93.2823 14.98323829 51829,6950.212,96.107,574.02,570.134,0.0
55942.0,STARLINK-5917,PAYLOAD,2024-02-17 21:41:54,14.98329467,0.0003078,70.001,17.2958,266.7132,93.3675,0.00010107,1.113e-05,0.0,0 STARLINK-5917,1 55942U 23037AE  24048.90409925  .00001113  00000-0  10107-3 0  9994,2 55942  70.0010  17.2958 0003078 266.7132  93.3675 14.98329467 51521,6950.195,96.107,574.199,569.92,0.0
55942.0,STARLINK-5917,PAYLOAD,2024-02-18 04:06:25,14.98338436,0.0003108,70.0009,16.6235,269.5985,90.4818,9.684e-05,1.063e-05,0.0,0 STARLINK-5917,1 55942U 23037AE  24049.17113407  .00001063  00000-0  96840-4 0  9994,2 55942  70.0009  16.6235 0003108 269.5985  90.4818 14.98338436 51906,6950.167,96.106,574.192,569.872,0.0
55942.0,STARLINK-5917,PAYLOAD,2024-02-18 07:18:41,14.98339607,0.0002601,70.0018,16.2866,255.8255,104.2615,0.0001867,2.136e-05,0.0,0 STARLINK-5917,1 55942U 23037AE  24049.30464981  .00002136  00000-0  18670-3 0  9991,2 55942  70.0018  16.2866 0002601 255.8255 104.2615 14.98339607 51581,6950.163,96.106,573.836,570.22,0.0
55942.0,STARLINK-5917,PAYLOAD,2024-02-18 23:20:02,14.98335708,0.0002391,70.0018,14.6014,262.341,97.7478,0.00021953,2.528e-05,0.0,0 STARLINK-5917,1 55942U 23037AE  24049.97225068  .00002528  00000-0  21953-3 0  9998,2 55942  70.0018  14.6014 0002391 262.3410  97.7478 14.98335708 51682,6950.175,96.107,573.702,570.378,0.0
55942.0,STARLINK-5917,PAYLOAD,2024-02-19 04:08:26,14.98338345,0.0002504,70.0018,14.0968,265.6119,94.4754,0.00019204,2.2e-05,0.0,0 STARLINK-5917,1 55942U 23037AE  24050.17252882  .00002200  00000-0  19204-3 0  9999,2 55942  70.0018  14.0968 0002504 265.6119  94.4754 14.98338345 52055,6950.167,96.106,573.772,570.292,0.0
55942.0,STARLINK-5917,PAYLOAD,2024-02-19 07:20:42,14.98338413,0.0002521,70.0018,13.7603,265.8117,94.2754,0.0001839,2.102e-05,0.0,0 STARLINK-5917,1 55942U 23037AE  24050.30604818  .00002102  00000-0  18390-3 0  9990,2 55942  70.0018  13.7603 0002521 265.8117  94.2754 14.98338413 51734,6950.167,96.106,573.784,570.28,0.0
55942.0,STARLINK-5917,PAYLOAD,2024-02-19 15:21:23,14.98331138,0.0001995,70.0042,12.9208,284.305,75.7888,6.6247e-05,6.98e-06,0.0,0 STARLINK-5917,1 55942U 23037AE  24050.63985717  .00000698  00000-0  66247-4 0  9999,2 55942  70.0042  12.9208 0001995 284.3050  75.7888 14.98331138 52122,6950.189,96.107,573.441,570.668,0.0
55942.0,STARLINK-5917,PAYLOAD,2024-02-19 21:45:55,14.9833699,0.0002371,70.0042,12.2473,277.1606,82.9283,-7.5207e-05,-9.9e-06,0.0,0 STARLINK-5917,1 55942U 23037AE  24050.90689442 -.00000990  00000-0 -75207-4 0  9998,2 55942  70.0042  12.2473 0002371 277.1606  82.9283 14.98336990 51821,6950.171,96.107,573.684,570.388,0.0
55942.0,STARLINK-5917,PAYLOAD,2024-02-20 07:22:44,14.98332241,0.0002696,70.0017,11.2366,264.7572,95.3279,-0.00018723,-2.326e-05,0.0,0 STARLINK-5917,1 55942U 23037AE  24051.30745795 -.00002326  00000-0 -18723-3 0  9991,2 55942  70.0017  11.2366 0002696 264.7572  95.3279 14.98332241 51881,6950.186,96.107,573.925,570.177,0.0
55942.0,STARLINK-5917,PAYLOAD,2024-02-20 23:24:04,14.98337187,0.0002871,70.0015,9.5533,269.5694,90.5136,-2.5732e-05,-4e-06,0.0,0 STARLINK-5917,1 55942U 23037AE  24051.97504704 -.00000400  00000-0 -25732-4 0  9997,2 55942  70.0015   9.5533 0002871 269.5694  90.5136 14.98337187 51982,6950.171,96.107,574.031,570.04,0.0
55942.0,STARLINK-5917,PAYLOAD,2024-02-21 04:12:27,14.98342485,0.0002884,70.0014,9.0484,270.244,89.8388,-1.519e-05,-2.74e-06,0.0,0 STARLINK-5917,1 55942U 23037AE  24052.17532225 -.00000274  00000-0 -15190-4 0  9995,2 55942  70.0014   9.0484 0002884 270.2440  89.8388 14.98342485 52352,6950.154,96.106,574.024,570.015,0.0
